#aV2013  4  3  0  0  0.00000000     288 DD+AD WGS84 FIT  NGA
## 1734 259200.00000000   300.00000000 56385 0.0000000000000
+   30     1  2  3  4  5  6  7  8  9 10 11 12 13 14 15 16 17
+         18 19 20 21 22 23 24 25 26 28 29 31 32  0  0  0  0
+          0  0  0  0  0  0  0  0  0  0  0  0  0  0  0  0  0
+          0  0  0  0  0  0  0  0  0  0  0  0  0  0  0  0  0
+          0  0  0  0  0  0  0  0  0  0  0  0  0  0  0  0  0
++         2  2  2  2  2  2  2  2  2  2  2  2  2  2  2  2  2
++         2  2  2  2  2  2  2  2  2  2  2  2  2  2  2  0  0
++         0  0  0  0  0  0  0  0  0  0  0  0  0  0  0  0  0
++         0  0  0  0  0  0  0  0  0  0  0  0  0  0  0  0  0
++         0  0  0  0  0  0  0  0  0  0  0  0  0  0  0  0  0
%c cc cc ccc ccc cccc cccc cccc cccc ccccc ccccc ccccc ccccc
%c cc cc ccc ccc cccc cccc cccc cccc ccccc ccccc ccccc ccccc
%f  0.0000000  0.000000000  0.00000000000  0.000000000000000
%f  0.0000000  0.000000000  0.00000000000  0.000000000000000
%i    0    0    0    0      0      0      0      0         0
%i    0    0    0    0      0      0      0      0         0
/*      NGA, ST. LOUIS,MO.                                  
/*   EPHEMERIS COMPUTED FROM  1 DAYS OF DATA
/*   EPOCHA SMOOTHER  
/* CCCCCCCCCCCCCCCCCCCCCCCCCCCCCCCCCCCCCCCCCCCCCCCCCCCCCCCCC
*  2013  4  3  8 20  0.00000000                                                 
P  1  22074.402620  14068.252019  -4761.514421     12.835767                    
V  1  -6588.687632   -117.842307 -30928.165582      0.033560                    
P  2  -2712.984471 -17404.830078  20207.851423    425.421132                    
V  2  23377.413774   9387.547135  10820.477873      0.019067                    
P  3  -1326.670880  19658.979092 -18218.239817    189.191599                    
V  3 -17657.954340  13752.963901  16819.032855      0.049410                    
P  4  11470.082830 -11477.941735  20788.420806    179.660285                    
V  4  24279.789064  12014.995532  -6393.560317      0.108910                    
P  5  -2306.311626 -26381.584535    -11.973595   -390.294840                    
V  5   3300.433199   -267.332635  31589.105130     -0.013728                    
P  6  -8383.194565  20274.582721 -14622.982349    289.093807                    
V  6 -16562.825380   9574.084841  22983.323874     -0.154004                    
P  7  24382.941280   4637.875896  -9811.577052    198.451615                    
V  7  10284.731275   7188.249278  28552.686519      0.043051                    
P  8  19598.664875  -1630.848486 -18028.179977      5.437487                    
V  8  19113.747702  12452.712673  18968.569560      0.001601                    
P  9    143.730771 -15907.176321 -21798.360257    231.396733                    
V  9  24087.789960  10698.051208  -7907.338214      0.026675                    
P 10   9425.314842 -19503.571882  14794.735913    -75.456397                    
V 10   4075.925768  19279.177956  22793.335293     -0.012734                    
P 11  18849.310185  13756.271649 -13360.808790   -368.683091                    
V 11 -16740.129150   1121.005337 -22941.864595     -0.036418                    
P 12 -11171.714287 -18760.130422  15240.716798    126.335037                    
V 12    349.047144 -19319.775955 -23278.482892      0.020705                    
P 13  22215.648513  -1344.542817  14443.474057    132.106154                    
V 13 -15383.910084  10396.900417  24272.068586     -0.035587                    
P 14 -21611.119242  15085.616423   2783.728660    221.077360                    
V 14  -4105.154285   -428.906605 -31893.811303      0.000572                    
P 15  -9692.577400 -12297.413336 -21485.659391   -113.861203                    
V 15  21987.667307 -16157.161995   -417.340538     -0.014120                    
P 16    425.608388  26356.953412    773.379385   -252.605742                    
V 16  -2394.368924   -921.141720  32476.343135      0.000476                    
P 17  20781.949280 -16030.753307   3332.711295     33.774781                    
V 17   4900.205773    249.556710 -31622.610070     -0.039539                    
P 18 -15261.400928   4623.401243 -20815.803789    247.030695                    
V 18  -2974.627576 -27364.726424  -4175.257723      0.018974                    
P 19   5360.747883  14379.376813 -21731.769453   -361.715101                    
V 19 -24068.103090  13165.358034   3196.210691     -0.031286                    
P 20  14253.148196  15498.760791  16056.855923     91.156654                    
V 20    347.406367  20930.445236 -20216.497464      0.018230                    
P 21 -23591.646885  -1164.813927 -12101.124842   -289.763978                    
V 21 -13366.370696  -9421.563660  25250.122511     -0.021809                    
P 22 -11462.854856  16659.687796 -16959.997965    163.133170                    
V 22  -4238.190453 -21799.576462 -18485.040093      0.013127                    
P 23  16963.057673   5454.573395  19877.107914     98.820520                    
V 23 -20138.706403  14852.049586  12767.068736     -0.036466                    
P 24 -19994.422751 -15501.608328  -8162.101379     -3.811925                    
V 24  10495.455045   1935.392117 -29377.849441     -0.006908                    
P 25 -14889.944095  -7088.408597  20798.259097     83.756082                    
V 25  -1685.420824 -26406.187671 -10090.465028      0.035992                    
P 26   4303.904980 -17738.177092 -19810.424232    -41.836572                    
V 26  21267.245149 -10841.887794  15150.439133      0.148990                    
P 28  12386.564888 -12695.714691 -19127.058855    246.610481                    
V 28   1996.979676  25505.391499 -15354.655839      0.032830                    
P 29 -22064.838712   1833.435570  14693.666613    422.886865                    
V 29  14670.437275 -11556.812876  23605.106189      0.035428                    
P 31  -8746.031616  12182.674293  22109.406830    309.131873                    
V 31 -24646.466697 -12374.334656  -2680.976363      0.015568                    
P 32   8086.503678  22958.053999  11367.078895   -547.798372                    
V 32  -2306.059714  14056.606445 -26569.638202     -0.026271                    
EOF
